[{"OBJECT_NAME":"SAOCOM 1A","OBJECT_ID":"2018-076A","EPOCH":"2026-03-07T04:40:55.833024","MEAN_MOTION":14.82164686,"ECCENTRICITY":0.0001261,"INCLINATION":97.8886,"RA_OF_ASC_NODE":254.4024,"ARG_OF_PERICENTER":84.1291,"MEAN_ANOMALY":276.0066,"EPHEMERIS_TYPE":0,"CLASSIFICATION_TYPE":"U","NORAD_CAT_ID":43641,"ELEMENT_SET_NO":999,"REV_AT_EPOCH":40099,"BSTAR":4.0298e-5,"MEAN_MOTION_DOT":2.69e-6,"MEAN_MOTION_DDOT":0},{"OBJECT_NAME":"H-2A R/B","OBJECT_ID":"2018-084L","EPOCH":"2026-03-07T03:15:49.793472","MEAN_MOTION":15.4120965,"ECCENTRICITY":0.0025588,"INCLINATION":98.8727,"RA_OF_ASC_NODE":282.9784,"ARG_OF_PERICENTER":34.0036,"MEAN_ANOMALY":326.284,"EPHEMERIS_TYPE":0,"CLASSIFICATION_TYPE":"U","NORAD_CAT_ID":43682,"ELEMENT_SET_NO":999,"REV_AT_EPOCH":40538,"BSTAR":0.00056234,"MEAN_MOTION_DOT":0.00023554,"MEAN_MOTION_DDOT":0},{"OBJECT_NAME":"SAOCOM 1B","OBJECT_ID":"2020-059A","EPOCH":"2026-03-06T22:57:01.124064","MEAN_MOTION":14.82173062,"ECCENTRICITY":0.0001505,"INCLINATION":97.8885,"RA_OF_ASC_NODE":253.2654,"ARG_OF_PERICENTER":81.2285,"MEAN_ANOMALY":278.9098,"EPHEMERIS_TYPE":0,"CLASSIFICATION_TYPE":"U","NORAD_CAT_ID":46265,"ELEMENT_SET_NO":999,"REV_AT_EPOCH":29834,"BSTAR":0.00017595,"MEAN_MOTION_DOT":1.349e-5,"MEAN_MOTION_DDOT":0},{"OBJECT_NAME":"CSS (TIANHE)","OBJECT_ID":"2021-035A","EPOCH":"2026-03-07T02:12:09.879264","MEAN_MOTION":15.60509219,"ECCENTRICITY":0.0006989,"INCLINATION":41.4664,"RA_OF_ASC_NODE":223.9664,"ARG_OF_PERICENTER":257.1897,"MEAN_ANOMALY":102.8161,"EPHEMERIS_TYPE":0,"CLASSIFICATION_TYPE":"U","NORAD_CAT_ID":48274,"ELEMENT_SET_NO":999,"REV_AT_EPOCH":27720,"BSTAR":0.00030186,"MEAN_MOTION_DOT":0.00025371,"MEAN_MOTION_DDOT":0},{"OBJECT_NAME":"COSMOS 2550","OBJECT_ID":"2021-056A","EPOCH":"2026-03-07T05:38:29.513184","MEAN_MOTION":15.33836733,"ECCENTRICITY":0.0008303,"INCLINATION":67.145,"RA_OF_ASC_NODE":48.3566,"ARG_OF_PERICENTER":269.5179,"MEAN_ANOMALY":90.5024,"EPHEMERIS_TYPE":0,"CLASSIFICATION_TYPE":"U","NORAD_CAT_ID":48865,"ELEMENT_SET_NO":999,"REV_AT_EPOCH":26308,"BSTAR":-1.3724e-7,"MEAN_MOTION_DOT":-1.96e-6,"MEAN_MOTION_DDOT":0},{"OBJECT_NAME":"CZ-2C R/B","OBJECT_ID":"2022-058K","EPOCH":"2026-03-07T03:12:04.858848","MEAN_MOTION":15.54005208,"ECCENTRICITY":0.004225,"INCLINATION":50.19,"RA_OF_ASC_NODE":331.4375,"ARG_OF_PERICENTER":189.9988,"MEAN_ANOMALY":170.0146,"EPHEMERIS_TYPE":0,"CLASSIFICATION_TYPE":"U","NORAD_CAT_ID":52794,"ELEMENT_SET_NO":999,"REV_AT_EPOCH":20973,"BSTAR":0.00057387,"MEAN_MOTION_DOT":0.0003906,"MEAN_MOTION_DDOT":0},{"OBJECT_NAME":"CZ-2C R/B","OBJECT_ID":"2022-132E","EPOCH":"2026-03-07T03:05:47.676192","MEAN_MOTION":15.61583148,"ECCENTRICITY":0.0020782,"INCLINATION":97.2967,"RA_OF_ASC_NODE":69.3684,"ARG_OF_PERICENTER":99.7126,"MEAN_ANOMALY":260.648,"EPHEMERIS_TYPE":0,"CLASSIFICATION_TYPE":"U","NORAD_CAT_ID":54039,"ELEMENT_SET_NO":999,"REV_AT_EPOCH":18997,"BSTAR":0.00052352,"MEAN_MOTION_DOT":0.0004546,"MEAN_MOTION_DDOT":0},{"OBJECT_NAME":"GSLV R/B","OBJECT_ID":"2022-138AN","EPOCH":"2026-03-06T10:40:36.650496","MEAN_MOTION":14.9674809,"ECCENTRICITY":0.00226055,"INCLINATION":87.3884,"RA_OF_ASC_NODE":167.4484,"ARG_OF_PERICENTER":157.9205,"MEAN_ANOMALY":202.3006,"EPHEMERIS_TYPE":0,"CLASSIFICATION_TYPE":"U","NORAD_CAT_ID":54149,"ELEMENT_SET_NO":999,"REV_AT_EPOCH":18344,"BSTAR":0.00035960126,"MEAN_MOTION_DOT":4.158e-5,"MEAN_MOTION_DDOT":0},{"OBJECT_NAME":"XRISM","OBJECT_ID":"2023-137A","EPOCH":"2026-03-07T01:33:48.248064","MEAN_MOTION":15.11463036,"ECCENTRICITY":0.0008035,"INCLINATION":31.0025,"RA_OF_ASC_NODE":300.6391,"ARG_OF_PERICENTER":11.7936,"MEAN_ANOMALY":348.289,"EPHEMERIS_TYPE":0,"CLASSIFICATION_TYPE":"U","NORAD_CAT_ID":57800,"ELEMENT_SET_NO":999,"REV_AT_EPOCH":13739,"BSTAR":0.0003631,"MEAN_MOTION_DOT":6.397e-5,"MEAN_MOTION_DDOT":0},{"OBJECT_NAME":"ACS3","OBJECT_ID":"2024-077B","EPOCH":"2026-03-06T18:16:49.861344","MEAN_MOTION":13.89448421,"ECCENTRICITY":0.0057601,"INCLINATION":97.2093,"RA_OF_ASC_NODE":7.5319,"ARG_OF_PERICENTER":84.3551,"MEAN_ANOMALY":276.4178,"EPHEMERIS_TYPE":0,"CLASSIFICATION_TYPE":"U","NORAD_CAT_ID":59588,"ELEMENT_SET_NO":999,"REV_AT_EPOCH":9379,"BSTAR":0.019238,"MEAN_MOTION_DOT":0.00023846,"MEAN_MOTION_DDOT":0},{"OBJECT_NAME":"SZ-21 MODULE","OBJECT_ID":"2025-246C","EPOCH":"2026-03-06T12:11:03.500160","MEAN_MOTION":15.68252686,"ECCENTRICITY":0.00014339,"INCLINATION":41.4735,"RA_OF_ASC_NODE":222.9439,"ARG_OF_PERICENTER":292.6372,"MEAN_ANOMALY":67.4317,"EPHEMERIS_TYPE":0,"CLASSIFICATION_TYPE":"U","NORAD_CAT_ID":66515,"ELEMENT_SET_NO":999,"REV_AT_EPOCH":1757,"BSTAR":0.00036494457,"MEAN_MOTION_DOT":0.0004195,"MEAN_MOTION_DDOT":0}]
