SAOCOM 1A               
1 43641U 18076A   26066.19509066  .00000269  00000+0  40298-4 0  9999
2 43641  97.8886 254.4024 0001261  84.1291 276.0066 14.82164686400997
H-2A R/B                
1 43682U 18084L   26066.13599298  .00023554  00000+0  56234-3 0  9991
2 43682  98.8727 282.9784 0025588  34.0036 326.2840 15.41209650405388
SAOCOM 1B               
1 46265U 20059A   26065.95626301  .00001349  00000+0  17595-3 0  9996
2 46265  97.8885 253.2654 0001505  81.2285 278.9098 14.82173062298347
CSS (TIANHE)            
1 48274U 21035A   26066.09178101  .00025371  00000+0  30186-3 0  9991
2 48274  41.4664 223.9664 0006989 257.1897 102.8161 15.60509219277200
COSMOS 2550             
1 48865U 21056A   26066.23506381 -.00000196  00000+0 -13724-6 0  9993
2 48865  67.1450  48.3566 0008303 269.5179  90.5024 15.33836733263082
CZ-2C R/B               
1 52794U 22058K   26066.13338957  .00039060  00000+0  57387-3 0  9993
2 52794  50.1900 331.4375 0042250 189.9988 170.0146 15.54005208209735
CZ-2C R/B               
1 54039U 22132E   26066.12902403  .00045460  00000+0  52352-3 0  9990
2 54039  97.2967  69.3684 0020782  99.7126 260.6480 15.61583148189974
GSLV R/B                
1 54149U 22138AN  26065.44486864  .00004158  00000+0  35960-3 0  9995
2 54149  87.3884 167.4484 0022605 157.9205 202.3006 14.96748090183442
XRISM                   
1 57800U 23137A   26066.06514176  .00006397  00000+0  36310-3 0  9996
2 57800  31.0025 300.6391 0008035  11.7936 348.2890 15.11463036137395
ACS3                    
1 59588U 24077B   26065.76168821  .00023846  00000+0  19238-1 0  9999
2 59588  97.2093   7.5319 0057601  84.3551 276.4178 13.89448421 93794
SZ-21 MODULE            
1 66515U 25246C   26065.50767940  .00041950  00000+0  36494-3 0  9996
2 66515  41.4735 222.9439 0001433 292.6372  67.4317 15.68252686 17579
